[{"OBJECT_NAME":"STARLINK-1597","OBJECT_ID":"2020-057AB","EPOCH":"2026-03-10T00:00:02.999808","MEAN_MOTION":15.56277129,"ECCENTRICITY":0.0007232,"INCLINATION":53.0492,"RA_OF_ASC_NODE":295.3481,"ARG_OF_PERICENTER":151.3253,"MEAN_ANOMALY":20.2244,"EPHEMERIS_TYPE":0,"CLASSIFICATION_TYPE":"U","NORAD_CAT_ID":46142,"ELEMENT_SET_NO":999,"REV_AT_EPOCH":592,"BSTAR":0.0020720238,"MEAN_MOTION_DOT":0.00150729,"MEAN_MOTION_DDOT":0},{"OBJECT_NAME":"STARLINK-1653","OBJECT_ID":"2020-062AD","EPOCH":"2026-03-10T00:00:02.999808","MEAN_MOTION":15.59225016,"ECCENTRICITY":0.00059506,"INCLINATION":53.0453,"RA_OF_ASC_NODE":320.9315,"ARG_OF_PERICENTER":251.2648,"MEAN_ANOMALY":247.8149,"EPHEMERIS_TYPE":0,"CLASSIFICATION_TYPE":"U","NORAD_CAT_ID":46352,"ELEMENT_SET_NO":999,"REV_AT_EPOCH":583,"BSTAR":0.0018332466,"MEAN_MOTION_DOT":0.00148839,"MEAN_MOTION_DDOT":0}]
